{
  "type": "FeatureCollection",
  "features": [
    {
      "type": "Feature",
      "properties": {
        "norad_id": 35583,
        "name": "COSMOS 2251 DEB",
        "group": "cosmos-2251-debris",
        "lat": -48.504740309763115,
        "lon": -175.51790551587706,
        "alt_km": 1008.2702882825151,
        "timestamp": "2025-12-17T23:38:07.249684+00:00",
        "meta_object_name": "COSMOS 2251 DEB",
        "meta_object_id": "1993-036AMA",
        "meta_epoch": "2025-12-15T08:07:13.110816",
        "meta_mean_motion": 13.55339959,
        "meta_eccentricity": 0.03853461,
        "meta_inclination": 73.9163,
        "meta_ra_of_asc_node": 207.8047,
        "meta_arg_of_pericenter": 231.6769,
        "meta_mean_anomaly": 124.9115,
        "meta_ephemeris_type": 0,
        "meta_classification_type": "U",
        "meta_norad_cat_id": 35583,
        "meta_element_set_no": 999,
        "meta_rev_at_epoch": 82447,
        "meta_bstar": 0.00076925209,
        "meta_mean_motion_dot": 8.34e-06,
        "meta_mean_motion_ddot": 0,
        "tle_line1": "1 35583U 93036AMA 25349.33834619  .00000834  00000+0  76925-3 0  9991",
        "tle_line2": "2 35583  73.9163 207.8047 0385346 231.6769 124.9115 13.55339959824476"
      },
      "geometry": {
        "type": "Point",
        "coordinates": [
          -175.51790551587706,
          -48.504740309763115
        ]
      }
    },
    {
      "type": "Feature",
      "properties": {
        "norad_id": 35585,
        "name": "COSMOS 2251 DEB",
        "group": "cosmos-2251-debris",
        "lat": -72.79188265612666,
        "lon": -88.48851460350623,
        "alt_km": 780.0916998734374,
        "timestamp": "2025-12-17T23:38:07.249694+00:00",
        "meta_object_name": "COSMOS 2251 DEB",
        "meta_object_id": "1993-036AMC",
        "meta_epoch": "2025-12-17T08:39:54.158400",
        "meta_mean_motion": 13.7526174,
        "meta_eccentricity": 0.03105215,
        "meta_inclination": 73.9723,
        "meta_ra_of_asc_node": 340.6956,
        "meta_arg_of_pericenter": 252.0353,
        "meta_mean_anomaly": 175.758,
        "meta_ephemeris_type": 0,
        "meta_classification_type": "U",
        "meta_norad_cat_id": 35585,
        "meta_element_set_no": 999,
        "meta_rev_at_epoch": 64127,
        "meta_bstar": 0.0008460608,
        "meta_mean_motion_dot": 1.128e-05,
        "meta_mean_motion_ddot": 0,
        "tle_line1": "1 35585U 93036AMC 25351.36104350  .00001128  00000+0  84606-3 0  9993",
        "tle_line2": "2 35585  73.9723 340.6956 0310521 252.0353 175.7580 13.75261740641273"
      },
      "geometry": {
        "type": "Point",
        "coordinates": [
          -88.48851460350623,
          -72.79188265612666
        ]
      }
    },
    {
      "type": "Feature",
      "properties": {
        "norad_id": 35586,
        "name": "COSMOS 2251 DEB",
        "group": "cosmos-2251-debris",
        "lat": 22.47232994898189,
        "lon": -59.11779898626191,
        "alt_km": 1305.568371782796,
        "timestamp": "2025-12-17T23:38:07.249704+00:00",
        "meta_object_name": "COSMOS 2251 DEB",
        "meta_object_id": "1993-036AMD",
        "meta_epoch": "2025-12-16T14:39:02.048832",
        "meta_mean_motion": 13.52087602,
        "meta_eccentricity": 0.04045249,
        "meta_inclination": 74.0205,
        "meta_ra_of_asc_node": 296.2763,
        "meta_arg_of_pericenter": 170.7772,
        "meta_mean_anomaly": 8.2302,
        "meta_ephemeris_type": 0,
        "meta_classification_type": "U",
        "meta_norad_cat_id": 35586,
        "meta_element_set_no": 999,
        "meta_rev_at_epoch": 60434,
        "meta_bstar": 0.00026866274,
        "meta_mean_motion_dot": 2.76e-06,
        "meta_mean_motion_ddot": 0,
        "tle_line1": "1 35586U 93036AMD 25350.61044038  .00000276  00000+0  26866-3 0  9994",
        "tle_line2": "2 35586  74.0205 296.2763 0404524 170.7772   8.2302 13.52087602604348"
      },
      "geometry": {
        "type": "Point",
        "coordinates": [
          -59.11779898626191,
          22.47232994898189
        ]
      }
    },
    {
      "type": "Feature",
      "properties": {
        "norad_id": 35587,
        "name": "COSMOS 2251 DEB",
        "group": "cosmos-2251-debris",
        "lat": -10.616307474766161,
        "lon": 45.13010474563318,
        "alt_km": 689.2426498174145,
        "timestamp": "2025-12-17T23:38:07.249714+00:00",
        "meta_object_name": "COSMOS 2251 DEB",
        "meta_object_id": "1993-036AME",
        "meta_epoch": "2025-12-16T10:09:30.215232",
        "meta_mean_motion": 14.71534567,
        "meta_eccentricity": 0.01025279,
        "meta_inclination": 74.0057,
        "meta_ra_of_asc_node": 51.2518,
        "meta_arg_of_pericenter": 238.1147,
        "meta_mean_anomaly": 121.0019,
        "meta_ephemeris_type": 0,
        "meta_classification_type": "U",
        "meta_norad_cat_id": 35587,
        "meta_element_set_no": 999,
        "meta_rev_at_epoch": 66400,
        "meta_bstar": 0.00020983764,
        "meta_mean_motion_dot": 1.377e-05,
        "meta_mean_motion_ddot": 0,
        "tle_line1": "1 35587U 93036AME 25350.42326638  .00001377  00000+0  20984-3 0  9991",
        "tle_line2": "2 35587  74.0057  51.2518 0102527 238.1147 121.0019 14.71534567664001"
      },
      "geometry": {
        "type": "Point",
        "coordinates": [
          45.13010474563318,
          -10.616307474766161
        ]
      }
    },
    {
      "type": "Feature",
      "properties": {
        "norad_id": 35593,
        "name": "COSMOS 2251 DEB",
        "group": "cosmos-2251-debris",
        "lat": -24.78275828934763,
        "lon": -88.55946703646052,
        "alt_km": 762.5589499432544,
        "timestamp": "2025-12-17T23:38:07.249724+00:00",
        "meta_object_name": "COSMOS 2251 DEB",
        "meta_object_id": "1993-036AML",
        "meta_epoch": "2025-12-16T02:16:58.534752",
        "meta_mean_motion": 14.25610716,
        "meta_eccentricity": 0.01051822,
        "meta_inclination": 74.086,
        "meta_ra_of_asc_node": 282.4096,
        "meta_arg_of_pericenter": 288.161,
        "meta_mean_anomaly": 70.8107,
        "meta_ephemeris_type": 0,
        "meta_classification_type": "U",
        "meta_norad_cat_id": 35593,
        "meta_element_set_no": 999,
        "meta_rev_at_epoch": 85113,
        "meta_bstar": 0.00056549388,
        "meta_mean_motion_dot": 1.393e-05,
        "meta_mean_motion_ddot": 0,
        "tle_line1": "1 35593U 93036AML 25350.09512193  .00001393  00000+0  56549-3 0  9998",
        "tle_line2": "2 35593  74.0860 282.4096 0105182 288.1610  70.8107 14.25610716851130"
      },
      "geometry": {
        "type": "Point",
        "coordinates": [
          -88.55946703646052,
          -24.78275828934763
        ]
      }
    },
    {
      "type": "Feature",
      "properties": {
        "norad_id": 35594,
        "name": "COSMOS 2251 DEB",
        "group": "cosmos-2251-debris",
        "lat": 13.288342175170346,
        "lon": 99.86639361955206,
        "alt_km": 624.8721492644818,
        "timestamp": "2025-12-17T23:38:07.249734+00:00",
        "meta_object_name": "COSMOS 2251 DEB",
        "meta_object_id": "1993-036AMM",
        "meta_epoch": "2025-12-16T13:41:22.201440",
        "meta_mean_motion": 14.88054364,
        "meta_eccentricity": 0.00297198,
        "meta_inclination": 73.8083,
        "meta_ra_of_asc_node": 98.7909,
        "meta_arg_of_pericenter": 210.3761,
        "meta_mean_anomaly": 149.5698,
        "meta_ephemeris_type": 0,
        "meta_classification_type": "U",
        "meta_norad_cat_id": 35594,
        "meta_element_set_no": 999,
        "meta_rev_at_epoch": 88242,
        "meta_bstar": 0.0013084556,
        "meta_mean_motion_dot": 0.00012108,
        "meta_mean_motion_ddot": 0,
        "tle_line1": "1 35594U 93036AMM 25350.57039585  .00012108  00000+0  13085-2 0  9994",
        "tle_line2": "2 35594  73.8083  98.7909 0029719 210.3761 149.5698 14.88054364882426"
      },
      "geometry": {
        "type": "Point",
        "coordinates": [
          99.86639361955206,
          13.288342175170346
        ]
      }
    },
    {
      "type": "Feature",
      "properties": {
        "norad_id": 35602,
        "name": "COSMOS 2251 DEB",
        "group": "cosmos-2251-debris",
        "lat": -61.09447848747275,
        "lon": 139.60375291208607,
        "alt_km": 435.0298228900392,
        "timestamp": "2025-12-17T23:38:07.249744+00:00",
        "meta_object_name": "COSMOS 2251 DEB",
        "meta_object_id": "1993-036AMV",
        "meta_epoch": "2025-12-16T12:05:04.490880",
        "meta_mean_motion": 15.35217708,
        "meta_eccentricity": 0.00894658,
        "meta_inclination": 73.9931,
        "meta_ra_of_asc_node": 174.1162,
        "meta_arg_of_pericenter": 239.0615,
        "meta_mean_anomaly": 151.2508,
        "meta_ephemeris_type": 0,
        "meta_classification_type": "U",
        "meta_norad_cat_id": 35602,
        "meta_element_set_no": 999,
        "meta_rev_at_epoch": 90149,
        "meta_bstar": 0.00038226129,
        "meta_mean_motion_dot": 0.00014891,
        "meta_mean_motion_ddot": 0,
        "tle_line1": "1 35602U 93036AMV 25350.50352420  .00014891  00000+0  38226-3 0  9999",
        "tle_line2": "2 35602  73.9931 174.1162 0089465 239.0615 151.2508 15.35217708901494"
      },
      "geometry": {
        "type": "Point",
        "coordinates": [
          139.60375291208607,
          -61.09447848747275
        ]
      }
    }
  ]
}